NORAD_CAT_ID,OBJECT_NAME,OBJECT_TYPE,EPOCH,MEAN_MOTION,ECCENTRICITY,INCLINATION,RA_OF_ASC_NODE,ARG_OF_PERICENTER,MEAN_ANOMALY,BSTAR,MEAN_MOTION_DOT,MEAN_MOTION_DDOT,TLE_LINE0,TLE_LINE1,TLE_LINE2,SEMIMAJOR_AXIS,PERIOD,APOGEE,PERIGEE,DECAYED
55304.0,STARLINK-5318,PAYLOAD,2023-08-24 22:11:22,14.983285,0.0003076,69.9991,203.4915,267.3021,92.7786,1.9165e-05,1.36e-06,0.0,0 STARLINK-5318,1 55304U 23010AM  23236.92456279  .00000136  00000-0  19165-4 0  9999,2 55304  69.9991 203.4915 0003076 267.3021  92.7786 14.98328500 34302,6950.198,96.107,574.2,569.925,0.0
55304.0,STARLINK-5318,PAYLOAD,2023-08-25 09:24:18,14.98332668,0.0003044,69.9992,202.3131,267.4062,92.6749,6.2373e-05,6.51e-06,0.0,0 STARLINK-5318,1 55304U 23010AM  23237.39187860  .00000651  00000-0  62373-4 0  9999,2 55304  69.9992 202.3131 0003044 267.4062  92.6749 14.98332668 34063,6950.185,96.107,574.165,569.934,0.0
55304.0,STARLINK-5318,PAYLOAD,2023-08-25 20:37:14,14.98330821,0.0002942,69.9996,201.135,267.8899,92.1923,2.4426e-05,1.98e-06,0.0,0 STARLINK-5318,1 55304U 23010AM  23237.85920025  .00000198  00000-0  24426-4 0  9991,2 55304  69.9996 201.1350 0002942 267.8899  92.1923 14.98330821 34445,6950.19,96.107,574.1,570.011,0.0
55304.0,STARLINK-5318,PAYLOAD,2023-08-26 07:50:11,14.98333255,0.0002904,69.9997,199.9565,267.7094,92.3733,4.9556e-05,4.98e-06,0.0,0 STARLINK-5318,1 55304U 23010AM  23238.32651726  .00000498  00000-0  49556-4 0  9997,2 55304  69.9997 199.9565 0002904 267.7094  92.3733 14.98333255 34515,6950.183,96.107,574.066,570.029,0.0
55304.0,STARLINK-5318,PAYLOAD,2023-08-27 01:27:40,14.98328716,0.0002791,69.9998,198.1049,268.953,91.1309,-3.3306e-05,-4.9e-06,0.0,0 STARLINK-5318,1 55304U 23010AM  23239.06088158 -.00000490  00000-0 -33306-4 0  9992,2 55304  69.9998 198.1049 0002791 268.9530  91.1309 14.98328716 34316,6950.197,96.107,574.002,570.122,0.0
55304.0,STARLINK-5318,PAYLOAD,2023-08-27 04:39:55,14.98336518,0.0002951,70.0007,197.77,280.1605,79.9221,8.2024e-05,8.86e-06,0.0,0 STARLINK-5318,1 55304U 23010AM  23239.19439595  .00000886  00000-0  82024-4 0  9999,2 55304  70.0007 197.7700 0002951 280.1605  79.9221 14.98336518 34334,6950.173,96.107,574.089,569.987,0.0
55304.0,STARLINK-5318,PAYLOAD,2023-08-28 03:05:49,14.9832961,0.0003178,69.9997,195.4124,274.3333,85.7463,-1.6469e-05,-2.9e-06,0.0,0 STARLINK-5318,1 55304U 23010AM  23240.12904002 -.00000290  00000-0 -16469-4 0  9995,2 55304  69.9997 195.4124 0003178 274.3333  85.7463 14.98329610 34472,6950.194,96.107,574.268,569.85,0.0
55304.0,STARLINK-5318,PAYLOAD,2023-08-28 20:43:17,14.98329885,0.0002869,69.9997,193.5603,271.4055,88.6775,-5.8337e-05,-7.89e-06,0.0,0 STARLINK-5318,1 55304U 23010AM  23240.86340171 -.00000789  00000-0 -58337-4 0  9990,2 55304  69.9997 193.5603 0002869 271.4055  88.6775 14.98329885 34896,6950.193,96.107,574.052,570.064,0.0
55304.0,STARLINK-5318,PAYLOAD,2023-08-29 06:20:06,14.98327714,0.0002875,69.9995,192.5504,269.7582,90.3247,1.1639e-05,4.6e-07,0.0,0 STARLINK-5318,1 55304U 23010AM  23241.26396113  .00000046  00000-0  11639-4 0  9990,2 55304  69.9995 192.5504 0002875 269.7582  90.3247 14.98327714 34641,6950.2,96.107,574.063,570.067,0.0
55304.0,STARLINK-5318,PAYLOAD,2023-08-30 06:22:07,14.9832973,0.0002952,69.9995,190.0255,270.1869,89.8952,1.2222e-05,5.3e-07,0.0,0 STARLINK-5318,1 55304U 23010AM  23242.26536107  .00000053  00000-0  12222-4 0  9997,2 55304  69.9995 190.0255 0002952 270.1869  89.8952 14.98329730 34799,6950.194,96.107,574.11,570.007,0.0
55304.0,STARLINK-5318,PAYLOAD,2023-08-30 14:22:47,14.98330365,0.000297,69.9996,189.1838,270.4761,89.6058,-9.701e-06,-2.09e-06,0.0,0 STARLINK-5318,1 55304U 23010AM  23242.59916111 -.00000209  00000-0 -97010-5 0  9994,2 55304  69.9996 189.1838 0002970 270.4761  89.6058 14.98330365 35152,6950.192,96.107,574.121,569.993,0.0
55304.0,STARLINK-5318,PAYLOAD,2023-08-31 06:24:08,14.98329767,0.0003011,69.9999,187.5007,270.263,89.8184,7.6046e-05,8.14e-06,0.0,0 STARLINK-5318,1 55304U 23010AM  23243.26675931  .00000814  00000-0  76046-4 0  9996,2 55304  69.9999 187.5007 0003011 270.2630  89.8184 14.98329767 34947,6950.194,96.107,574.151,569.966,0.0
55304.0,STARLINK-5318,PAYLOAD,2023-09-01 03:13:53,14.98325238,0.0003396,70.0007,185.3147,269.9036,90.1734,-2.7933e-06,-1.26e-06,0.0,0 STARLINK-5318,1 55304U 23010AM  23244.13464427 -.00000126  00000-0 -27933-5 0  9999,2 55304  70.0007 185.3147 0003396 269.9036  90.1734 14.98325238 35072,6950.208,96.107,574.433,569.712,0.0
55304.0,STARLINK-5318,PAYLOAD,2023-09-01 06:26:08,14.98331789,0.0002869,70.0006,184.9778,267.824,92.259,6.7202e-05,7.09e-06,0.0,0 STARLINK-5318,1 55304U 23010AM  23244.26815887  .00000709  00000-0  67202-4 0  9990,2 55304  70.0006 184.9778 0002869 267.8240  92.2590 14.98331789 35097,6950.187,96.107,574.046,570.058,0.0
55304.0,STARLINK-5318,PAYLOAD,2023-09-01 12:50:40,14.98354919,0.0002966,70.0002,184.3027,274.4152,85.6668,-0.00034874,-4.254e-05,0.0,0 STARLINK-5318,1 55304U 23010AM  23244.53519253 -.00004254  00000-0 -34874-3 0  9997,2 55304  70.0002 184.3027 0002966 274.4152  85.6668 14.98354919 35449,6950.116,96.105,574.042,569.919,0.0
55304.0,STARLINK-5318,PAYLOAD,2023-09-02 19:17:14,14.98331965,0.0002902,70.0,181.105,270.9955,89.0872,2.5719e-05,2.14e-06,0.0,0 STARLINK-5318,1 55304U 23010AM  23245.80363657  .00000214  00000-0  25719-4 0  9992,2 55304  70.0000 181.1050 0002902 270.9955  89.0872 14.98331965 35632,6950.187,96.107,574.069,570.035,0.0
55304.0,STARLINK-5318,PAYLOAD,2023-09-03 01:41:46,14.98331404,0.0002905,70.0,180.4316,272.8653,87.2174,-3.2666e-05,-4.83e-06,0.0,0 STARLINK-5318,1 55304U 23010AM  23246.07067802 -.00000483  00000-0 -32666-4 0  9994,2 55304  70.0000 180.4316 0002905 272.8653  87.2174 14.98331404 35361,6950.189,96.107,574.073,570.035,0.0
55304.0,STARLINK-5318,PAYLOAD,2023-09-03 12:54:43,14.98327276,0.0003205,70.0005,179.2536,271.7407,88.3385,-6.7027e-05,-8.93e-06,0.0,0 STARLINK-5318,1 55304U 23010AM  23246.53800000 -.00000893  00000-0 -67027-4 0  9994,2 55304  70.0005 179.2536 0003205 271.7407  88.3385 14.98327276 35745,6950.201,96.107,574.294,569.839,0.0
55304.0,STARLINK-5318,PAYLOAD,2023-09-04 01:43:48,14.98321978,0.0002798,70.0009,177.9085,273.2913,86.7926,-3.8938e-05,-5.57e-06,0.0,0 STARLINK-5318,1 55304U 23010AM  23247.07208414 -.00000557  00000-0 -38938-4 0  9991,2 55304  70.0009 177.9085 0002798 273.2913  86.7926 14.98321978 35519,6950.218,96.108,574.027,570.138,0.0
55304.0,STARLINK-5318,PAYLOAD,2023-09-04 12:56:44,14.98325823,0.0002831,70.0005,176.7295,272.2198,87.8637,-5.2666e-07,-9.9e-07,0.0,0 STARLINK-5318,1 55304U 23010AM  23247.53940258 -.00000099  00000-0 -52666-6 0  9998,2 55304  70.0005 176.7295 0002831 272.2198  87.8637 14.98325823 35892,6950.206,96.107,574.038,570.103,0.0
55304.0,STARLINK-5318,PAYLOAD,2023-09-04 19:21:16,14.98327854,0.0002945,70.0004,176.0565,272.5726,87.5095,2.8094e-05,2.42e-06,0.0,0 STARLINK-5318,1 55304U 23010AM  23247.80644084  .00000242  00000-0  28094-4 0  9990,2 55304  70.0004 176.0565 0002945 272.5726  87.5095 14.98327854 35622,6950.2,96.107,574.111,570.018,0.0
55304.0,STARLINK-5318,PAYLOAD,2023-09-05 04:58:04,14.98332295,0.0002906,70.0004,175.0459,271.0467,89.0359,6.9853e-05,7.41e-06,0.0,0 STARLINK-5318,1 55304U 23010AM  23248.20699675  .00000741  00000-0  69853-4 0  9993,2 55304  70.0004 175.0459 0002906 271.0467  89.0359 14.98332295 35991,6950.186,96.107,574.071,570.031,0.0
55304.0,STARLINK-5318,PAYLOAD,2023-09-06 01:47:49,14.98327906,0.0002954,70.0004,172.8578,270.1421,89.9399,7.4319e-05,7.94e-06,0.0,0 STARLINK-5318,1 55304U 23010AM  23249.07487964  .00000794  00000-0  74319-4 0  9996,2 55304  70.0004 172.8578 0002954 270.1421  89.9399 14.98327906 35818,6950.199,96.107,574.117,570.011,0.0
55304.0,STARLINK-5318,PAYLOAD,2023-09-06 17:49:10,14.98333022,0.0002897,70.0006,171.1745,270.2017,89.881,-7.8111e-07,-1.02e-06,0.0,0 STARLINK-5318,1 55304U 23010AM  23249.74247833 -.00000102  00000-0 -78111-6 0  9990,2 55304  70.0006 171.1745 0002897 270.2017  89.8810 14.98333022 36225,6950.184,96.107,574.062,570.035,0.0
55304.0,STARLINK-5318,PAYLOAD,2023-09-07 05:02:06,14.98335655,0.0002877,70.0007,169.9969,269.738,90.3449,-3.6699e-06,-1.37e-06,0.0,0 STARLINK-5318,1 55304U 23010AM  23250.20979522 -.00000137  00000-0 -36699-5 0  9992,2 55304  70.0007 169.9969 0002877 269.7380  90.3449 14.98335655 35984,6950.175,96.107,574.04,570.041,0.0
55304.0,STARLINK-5318,PAYLOAD,2023-09-07 17:51:10,14.98331698,0.0002525,70.0003,168.6499,271.4035,88.6834,-9.5755e-06,-2.07e-06,0.0,0 STARLINK-5318,1 55304U 23010AM  23250.74387730 -.00000207  00000-0 -95755-5 0  9991,2 55304  70.0003 168.6499 0002525 271.4035  88.6834 14.98331698 36376,6950.188,96.107,573.808,570.298,0.0
55304.0,STARLINK-5318,PAYLOAD,2023-09-08 01:51:51,14.98329715,0.0002663,70.001,167.8083,272.4036,87.6819,-2.6047e-05,-4.04e-06,0.0,0 STARLINK-5318,1 55304U 23010AM  23251.07767861 -.00000404  00000-0 -26047-4 0  9991,2 55304  70.0010 167.8083 0002663 272.4036  87.6819 14.98329715 36110,6950.194,96.107,573.91,570.208,0.0
55304.0,STARLINK-5318,PAYLOAD,2023-09-08 05:04:07,14.98330941,0.0002622,70.0012,167.4714,273.4658,86.6202,-8.7335e-06,-1.97e-06,0.0,0 STARLINK-5318,1 55304U 23010AM  23251.21119738 -.00000197  00000-0 -87335-5 0  9998,2 55304  70.0012 167.4714 0002622 273.4658  86.6202 14.98330941 36449,6950.19,96.107,573.877,570.233,0.0
55304.0,STARLINK-5318,PAYLOAD,2023-09-09 01:53:52,14.98332326,0.000273,70.0008,165.2835,264.1003,95.9845,-1.7557e-05,-3.02e-06,0.0,0 STARLINK-5318,1 55304U 23010AM  23252.07907453 -.00000302  00000-0 -17557-4 0  9998,2 55304  70.0008 165.2835 0002730 264.1003  95.9845 14.98332326 36260,6950.186,96.107,573.948,570.153,0.0
55304.0,STARLINK-5318,PAYLOAD,2023-09-09 11:30:40,14.98328103,0.0002891,70.0006,164.2737,268.0556,92.0272,-3.2911e-06,-1.32e-06,0.0,0 STARLINK-5318,1 55304U 23010AM  23252.47963590 -.00000132  00000-0 -32911-5 0  9999,2 55304  70.0006 164.2737 0002891 268.0556  92.0272 14.98328103 36633,6950.199,96.107,574.073,570.054,0.0
